{"type": "FeatureCollection", "features": [ {"type": "Feature", "properties": {"norad_id": 66705, "name": "FLOCK 4H-2", "group": "last-30-days", "lat": 70.92208165038579, "lon": -91.31057368987604, "alt_km": 504.35294872616487, "timestamp": "2025-12-20T20:38:43.172058+00:00", "meta": {"OBJECT_NAME": "FLOCK 4H-2", "OBJECT_ID": "2025-276AR", "EPOCH": "2025-12-20T13:50:43.391040", "MEAN_MOTION": 15.18100258, "ECCENTRICITY": 8.886e-05, "INCLINATION": 97.4384, "RA_OF_ASC_NODE": 66.2156, "ARG_OF_PERICENTER": 159.723, "MEAN_ANOMALY": 200.4039, "EPHEMERIS_TYPE": 0, "CLASSIFICATION_TYPE": "U", "NORAD_CAT_ID": 66705, "ELEMENT_SET_NO": 999, "REV_AT_EPOCH": 331, "BSTAR": 0.00031497123, "MEAN_MOTION_DOT": 6.357e-05, "MEAN_MOTION_DDOT": 0}, "tle": {"line1": "1 66705U 25276AR  25354.57689110  .00006357  00000+0  31497-3 0  9999", "line2": "2 66705  97.4384  66.2156 0000888 159.7230 200.4039 15.18100258  3314"}}, "geometry": {"type": "Point", "coordinates": [-91.31057368987604, 70.92208165038579]}}, {"type": "Feature", "properties": {"norad_id": 66706, "name": "FLOCK 4H-3", "group": "last-30-days", "lat": 56.97433515453791, "lon": 54.8887678823379, "alt_km": 509.86668265172466, "timestamp": "2025-12-20T20:38:43.172068+00:00", "meta": {"OBJECT_NAME": "FLOCK 4H-3", "OBJECT_ID": "2025-276AS", "EPOCH": "2025-12-20T04:33:56.462976", "MEAN_MOTION": 15.17450644, "ECCENTRICITY": 0.00028015, "INCLINATION": 97.445, "RA_OF_ASC_NODE": 65.8354, "ARG_OF_PERICENTER": 263.5985, "MEAN_ANOMALY": 96.493, "EPHEMERIS_TYPE": 0, "CLASSIFICATION_TYPE": "U", "NORAD_CAT_ID": 66706, "ELEMENT_SET_NO": 999, "REV_AT_EPOCH": 325, "BSTAR": 0.00030133315, "MEAN_MOTION_DOT": 5.966e-05, "MEAN_MOTION_DDOT": 0}, "tle": {"line1": "1 66706U 25276AS  25354.19023684  .00005966  00000+0  30133-3 0  9997", "line2": "2 66706  97.4450  65.8354 0002801 263.5985  96.4930 15.17450644  3254"}}, "geometry": {"type": "Point", "coordinates": [54.8887678823379, 56.97433515453791]}}, {"type": "Feature", "properties": {"norad_id": 66707, "name": "FLOCK 4H-4", "group": "last-30-days", "lat": 37.85844977505116, "lon": 60.648085354210544, "alt_km": 513.3757380741135, "timestamp": "2025-12-20T20:38:43.172080+00:00", "meta": {"OBJECT_NAME": "FLOCK 4H-4", "OBJECT_ID": "2025-276AT", "EPOCH": "2025-12-20T14:08:44.639520", "MEAN_MOTION": 15.1718024, "ECCENTRICITY": 0.0003453, "INCLINATION": 97.4439, "RA_OF_ASC_NODE": 66.2152, "ARG_OF_PERICENTER": 262.8492, "MEAN_ANOMALY": 97.2349, "EPHEMERIS_TYPE": 0, "CLASSIFICATION_TYPE": "U", "NORAD_CAT_ID": 66707, "ELEMENT_SET_NO": 999, "REV_AT_EPOCH": 331, "BSTAR": 0.00027736237, "MEAN_MOTION_DOT": 5.443e-05, "MEAN_MOTION_DDOT": 0}, "tle": {"line1": "1 66707U 25276AT  25354.58940555  .00005443  00000+0  27736-3 0  9991", "line2": "2 66707  97.4439  66.2152 0003453 262.8492  97.2349 15.17180240  3314"}}, "geometry": {"type": "Point", "coordinates": [60.648085354210544, 37.85844977505116]}}, {"type": "Feature", "properties": {"norad_id": 66708, "name": "FLOCK 4H-5", "group": "last-30-days", "lat": 65.00918514064558, "lon": -97.21851950962525, "alt_km": 504.40531109140375, "timestamp": "2025-12-20T20:38:43.172090+00:00", "meta": {"OBJECT_NAME": "FLOCK 4H-5", "OBJECT_ID": "2025-276AU", "EPOCH": "2025-12-20T13:49:04.552896", "MEAN_MOTION": 15.18135719, "ECCENTRICITY": 0.00010945, "INCLINATION": 97.4397, "RA_OF_ASC_NODE": 66.2209, "ARG_OF_PERICENTER": 124.5979, "MEAN_ANOMALY": 235.5359, "EPHEMERIS_TYPE": 0, "CLASSIFICATION_TYPE": "U", "NORAD_CAT_ID": 66708, "ELEMENT_SET_NO": 999, "REV_AT_EPOCH": 331, "BSTAR": 0.00030840974, "MEAN_MOTION_DOT": 6.229e-05, "MEAN_MOTION_DDOT": 0}, "tle": {"line1": "1 66708U 25276AU  25354.57574714  .00006229  00000+0  30841-3 0  9995", "line2": "2 66708  97.4397  66.2209 0001094 124.5979 235.5359 15.18135719  3314"}}, "geometry": {"type": "Point", "coordinates": [-97.21851950962525, 65.00918514064558]}}, {"type": "Feature", "properties": {"norad_id": 66709, "name": "FLOCK 4H-6", "group": "last-30-days", "lat": 80.60798013611506, "lon": -61.25835391978866, "alt_km": 505.6791438399159, "timestamp": "2025-12-20T20:38:43.172100+00:00", "meta": {"OBJECT_NAME": "FLOCK 4H-6", "OBJECT_ID": "2025-276AV", "EPOCH": "2025-12-20T13:53:46.917600", "MEAN_MOTION": 15.17884001, "ECCENTRICITY": 0.00024756, "INCLINATION": 97.4442, "RA_OF_ASC_NODE": 66.2331, "ARG_OF_PERICENTER": 216.7042, "MEAN_ANOMALY": 143.4022, "EPHEMERIS_TYPE": 0, "CLASSIFICATION_TYPE": "U", "NORAD_CAT_ID": 66709, "ELEMENT_SET_NO": 999, "REV_AT_EPOCH": 331, "BSTAR": 0.00028604709, "MEAN_MOTION_DOT": 5.73e-05, "MEAN_MOTION_DDOT": 0}, "tle": {"line1": "1 66709U 25276AV  25354.57901525  .00005730  00000+0  28605-3 0  9991", "line2": "2 66709  97.4442  66.2331 0002475 216.7042 143.4022 15.17884001  3319"}}, "geometry": {"type": "Point", "coordinates": [-61.25835391978866, 80.60798013611506]}}, {"type": "Feature", "properties": {"norad_id": 66710, "name": "FLOCK 4H-7", "group": "last-30-days", "lat": 57.40344427419867, "lon": 54.68214747576164, "alt_km": 507.8507976728288, "timestamp": "2025-12-20T20:38:43.172112+00:00", "meta": {"OBJECT_NAME": "FLOCK 4H-7", "OBJECT_ID": "2025-276AW", "EPOCH": "2025-12-20T14:03:33.697152", "MEAN_MOTION": 15.17423858, "ECCENTRICITY": 4.144e-05, "INCLINATION": 97.4398, "RA_OF_ASC_NODE": 66.2045, "ARG_OF_PERICENTER": 41.2457, "MEAN_ANOMALY": 318.8808, "EPHEMERIS_TYPE": 0, "CLASSIFICATION_TYPE": "U", "NORAD_CAT_ID": 66710, "ELEMENT_SET_NO": 999, "REV_AT_EPOCH": 331, "BSTAR": 0.00078000669, "MEAN_MOTION_DOT": 0.00015554, "MEAN_MOTION_DDOT": 0}, "tle": {"line1": "1 66710U 25276AW  25354.58580668  .00015554  00000+0  78001-3 0  9995", "line2": "2 66710  97.4398  66.2045 0000414  41.2457 318.8808 15.17423858  3314"}}, "geometry": {"type": "Point", "coordinates": [54.68214747576164, 57.40344427419867]}}, {"type": "Feature", "properties": {"norad_id": 66711, "name": "FLOCK 4H-8", "group": "last-30-days", "lat": 56.57714155208054, "lon": 55.06672111947521, "alt_km": 509.3858249173445, "timestamp": "2025-12-20T20:38:43.172127+00:00", "meta": {"OBJECT_NAME": "FLOCK 4H-8", "OBJECT_ID": "2025-276AX", "EPOCH": "2025-12-20T14:03:47.362176", "MEAN_MOTION": 15.17454367, "ECCENTRICITY": 0.00024544, "INCLINATION": 97.4438, "RA_OF_ASC_NODE": 66.2239, "ARG_OF_PERICENTER": 281.1237, "MEAN_ANOMALY": 78.9721, "EPHEMERIS_TYPE": 0, "CLASSIFICATION_TYPE": "U", "NORAD_CAT_ID": 66711, "ELEMENT_SET_NO": 999, "REV_AT_EPOCH": 331, "BSTAR": 0.00038737255, "MEAN_MOTION_DOT": 7.69e-05, "MEAN_MOTION_DDOT": 0}, "tle": {"line1": "1 66711U 25276AX  25354.58596484  .00007690  00000+0  38737-3 0  9993", "line2": "2 66711  97.4438  66.2239 0002454 281.1237  78.9721 15.17454367  3319"}}, "geometry": {"type": "Point", "coordinates": [55.06672111947521, 56.57714155208054]}}, {"type": "Feature", "properties": {"norad_id": 66712, "name": "FLOCK 4H-9", "group": "last-30-days", "lat": 81.22791085084214, "lon": -55.57638165490883, "alt_km": 505.9459083237616, "timestamp": "2025-12-20T20:38:43.172137+00:00", "meta": {"OBJECT_NAME": "FLOCK 4H-9", "OBJECT_ID": "2025-276AY", "EPOCH": "2025-12-20T13:54:04.143168", "MEAN_MOTION": 15.17886522, "ECCENTRICITY": 0.00025476, "INCLINATION": 97.4436, "RA_OF_ASC_NODE": 66.231, "ARG_OF_PERICENTER": 226.6011, "MEAN_ANOMALY": 133.5011, "EPHEMERIS_TYPE": 0, "CLASSIFICATION_TYPE": "U", "NORAD_CAT_ID": 66712, "ELEMENT_SET_NO": 999, "REV_AT_EPOCH": 331, "BSTAR": 0.00030358405, "MEAN_MOTION_DOT": 6.087e-05, "MEAN_MOTION_DDOT": 0}, "tle": {"line1": "1 66712U 25276AY  25354.57921462  .00006087  00000+0  30358-3 0  9991", "line2": "2 66712  97.4436  66.2310 0002547 226.6011 133.5011 15.17886522  3317"}}, "geometry": {"type": "Point", "coordinates": [-55.57638165490883, 81.22791085084214]}}, {"type": "Feature", "properties": {"norad_id": 66713, "name": "FLOCK 4H-10", "group": "last-30-days", "lat": 40.90590951251588, "lon": 59.97182268913817, "alt_km": 511.87378781577445, "timestamp": "2025-12-20T20:38:43.172149+00:00", "meta": {"OBJECT_NAME": "FLOCK 4H-10", "OBJECT_ID": "2025-276AZ", "EPOCH": "2025-12-20T14:07:57.734688", "MEAN_MOTION": 15.17289219, "ECCENTRICITY": 0.00028406, "INCLINATION": 97.4403, "RA_OF_ASC_NODE": 66.2066, "ARG_OF_PERICENTER": 278.6763, "MEAN_ANOMALY": 81.4149, "EPHEMERIS_TYPE": 0, "CLASSIFICATION_TYPE": "U", "NORAD_CAT_ID": 66713, "ELEMENT_SET_NO": 999, "REV_AT_EPOCH": 331, "BSTAR": 0.0021922498, "MEAN_MOTION_DOT": 0.00043841, "MEAN_MOTION_DDOT": 0}, "tle": {"line1": "1 66713U 25276AZ  25354.58886267  .00043841  00000+0  21922-2 0  9991", "line2": "2 66713  97.4403  66.2066 0002840 278.6763  81.4149 15.17289219  3310"}}, "geometry": {"type": "Point", "coordinates": [59.97182268913817, 40.90590951251588]}}, {"type": "Feature", "properties": {"norad_id": 66714, "name": "FLOCK 4H-11", "group": "last-30-days", "lat": 65.21190932877118, "lon": 50.05000818146199, "alt_km": 507.4018413509575, "timestamp": "2025-12-20T20:38:43.172159+00:00", "meta": {"OBJECT_NAME": "FLOCK 4H-11", "OBJECT_ID": "2025-276BA", "EPOCH": "2025-12-20T14:01:30.158976", "MEAN_MOTION": 15.17735435, "ECCENTRICITY": 0.00020729, "INCLINATION": 97.4428, "RA_OF_ASC_NODE": 66.2227, "ARG_OF_PERICENTER": 289.099, "MEAN_ANOMALY": 71.002, "EPHEMERIS_TYPE": 0, "CLASSIFICATION_TYPE": "U", "NORAD_CAT_ID": 66714, "ELEMENT_SET_NO": 999, "REV_AT_EPOCH": 331, "BSTAR": 0.0004195135, "MEAN_MOTION_DOT": 8.402e-05, "MEAN_MOTION_DDOT": 0}, "tle": {"line1": "1 66714U 25276BA  25354.58437684  .00008402  00000+0  41951-3 0  9996", "line2": "2 66714  97.4428  66.2227 0002072 289.0990  71.0020 15.17735435  3311"}}, "geometry": {"type": "Point", "coordinates": [50.05000818146199, 65.21190932877118]}}]}